[{"OBJECT_NAME":"STARLINK-4750","OBJECT_ID":"2022-114Z","EPOCH":"2026-03-09T21:55:59.618208","MEAN_MOTION":15.08845466,"ECCENTRICITY":0.00013673,"INCLINATION":53.2168,"RA_OF_ASC_NODE":293.239,"ARG_OF_PERICENTER":110.8884,"MEAN_ANOMALY":249.2255,"EPHEMERIS_TYPE":0,"CLASSIFICATION_TYPE":"U","NORAD_CAT_ID":53841,"ELEMENT_SET_NO":999,"REV_AT_EPOCH":19300,"BSTAR":-3.8925168e-5,"MEAN_MOTION_DOT":-9.07e-6,"MEAN_MOTION_DDOT":0},{"OBJECT_NAME":"PSLV DEB","OBJECT_ID":"2001-049AH","EPOCH":"2026-03-09T23:39:21.767904","MEAN_MOTION":14.98984537,"ECCENTRICITY":0.00513683,"INCLINATION":98.1237,"RA_OF_ASC_NODE":87.2704,"ARG_OF_PERICENTER":48.4953,"MEAN_ANOMALY":9.0267,"EPHEMERIS_TYPE":0,"CLASSIFICATION_TYPE":"U","NORAD_CAT_ID":27089,"ELEMENT_SET_NO":999,"REV_AT_EPOCH":31452,"BSTAR":0.000212521,"MEAN_MOTION_DOT":2.577e-5,"MEAN_MOTION_DDOT":0}]
